[{"CCSDS_OMM_VERS":"3.0","COMMENT":"GENERATED VIA SPACE-TRACK.ORG API","CREATION_DATE":"2026-05-16T10:38:26","ORIGINATOR":"18 SPCS","OBJECT_NAME":"THORAD AGENA D DEB","OBJECT_ID":"1969-082BX","CENTER_NAME":"EARTH","REF_FRAME":"TEME","TIME_SYSTEM":"UTC","MEAN_ELEMENT_THEORY":"SGP4","EPOCH":"2026-05-16T03:51:05.236128","MEAN_MOTION":"14.25848298","ECCENTRICITY":"0.00123458","INCLINATION":"70.0860","RA_OF_ASC_NODE":"30.2643","ARG_OF_PERICENTER":"14.5778","MEAN_ANOMALY":"345.5698","EPHEMERIS_TYPE":"0","CLASSIFICATION_TYPE":"U","NORAD_CAT_ID":"4208","ELEMENT_SET_NO":"999","REV_AT_EPOCH":"530","BSTAR":"0.00019131912000","MEAN_MOTION_DOT":"0.00000399","MEAN_MOTION_DDOT":"0.0000000000000","SEMIMAJOR_AXIS":"7183.779","PERIOD":"100.993","APOAPSIS":"814.513","PERIAPSIS":"796.775","OBJECT_TYPE":"DEBRIS","RCS_SIZE":"SMALL","COUNTRY_CODE":"US","LAUNCH_DATE":"1969-09-30","SITE":"AFWTR","DECAY_DATE":null,"FILE":"5196540","GP_ID":"323424309","TLE_LINE0":"0 THORAD AGENA D DEB","TLE_LINE1":"1 04208U 69082BX  26136.16047727  .00000399  00000-0  19132-3 0  9991","TLE_LINE2":"2 04208  70.0860  30.2643 0012346  14.5778 345.5698 14.25848298  5302"},{"CCSDS_OMM_VERS":"3.0","COMMENT":"GENERATED VIA SPACE-TRACK.ORG API","CREATION_DATE":"2026-05-16T10:38:26","ORIGINATOR":"18 SPCS","OBJECT_NAME":"THORAD AGENA D DEB","OBJECT_ID":"1969-082BY","CENTER_NAME":"EARTH","REF_FRAME":"TEME","TIME_SYSTEM":"UTC","MEAN_ELEMENT_THEORY":"SGP4","EPOCH":"2026-05-16T05:57:45.276480","MEAN_MOTION":"14.05057128","ECCENTRICITY":"0.00403331","INCLINATION":"70.0322","RA_OF_ASC_NODE":"279.1897","ARG_OF_PERICENTER":"357.0460","MEAN_ANOMALY":"3.0406","EPHEMERIS_TYPE":"0","CLASSIFICATION_TYPE":"U","NORAD_CAT_ID":"4209","ELEMENT_SET_NO":"999","REV_AT_EPOCH":"89947","BSTAR":"-0.00005318494300","MEAN_MOTION_DOT":"-0.00000140","MEAN_MOTION_DDOT":"0.0000000000000","SEMIMAJOR_AXIS":"7254.473","PERIOD":"102.487","APOAPSIS":"905.597","PERIAPSIS":"847.078","OBJECT_TYPE":"DEBRIS","RCS_SIZE":"MEDIUM","COUNTRY_CODE":"US","LAUNCH_DATE":"1969-09-30","SITE":"AFWTR","DECAY_DATE":null,"FILE":"5196540","GP_ID":"323423810","TLE_LINE0":"0 THORAD AGENA D DEB","TLE_LINE1":"1 04209U 69082BY  26136.24844070 -.00000140  00000-0 -53185-4 0  9990","TLE_LINE2":"2 04209  70.0322 279.1897 0040333 357.0460   3.0406 14.05057128899475"},{"CCSDS_OMM_VERS":"3.0","COMMENT":"GENERATED VIA SPACE-TRACK.ORG API","CREATION_DATE":"2026-05-16T17:43:08","ORIGINATOR":"18 SPCS","OBJECT_NAME":"THORAD AGENA D DEB","OBJECT_ID":"1969-082CA","CENTER_NAME":"EARTH","REF_FRAME":"TEME","TIME_SYSTEM":"UTC","MEAN_ELEMENT_THEORY":"SGP4","EPOCH":"2026-05-16T14:41:45.879648","MEAN_MOTION":"14.11460300","ECCENTRICITY":"0.00312950","INCLINATION":"70.0733","RA_OF_ASC_NODE":"107.1879","ARG_OF_PERICENTER":"21.0058","MEAN_ANOMALY":"339.2334","EPHEMERIS_TYPE":"0","CLASSIFICATION_TYPE":"U","NORAD_CAT_ID":"4211","ELEMENT_SET_NO":"999","REV_AT_EPOCH":"90857","BSTAR":"0.00008927648300","MEAN_MOTION_DOT":"0.00000108","MEAN_MOTION_DDOT":"0.0000000000000","SEMIMAJOR_AXIS":"7232.516","PERIOD":"102.022","APOAPSIS":"877.015","PERIAPSIS":"831.747","OBJECT_TYPE":"DEBRIS","RCS_SIZE":"MEDIUM","COUNTRY_CODE":"US","LAUNCH_DATE":"1969-09-30","SITE":"AFWTR","DECAY_DATE":null,"FILE":"5196581","GP_ID":"323457510","TLE_LINE0":"0 THORAD AGENA D DEB","TLE_LINE1":"1 04211U 69082CA  26136.61233657  .00000108  00000-0  89276-4 0  9999","TLE_LINE2":"2 04211  70.0733 107.1879 0031295  21.0058 339.2334 14.11460300908575"},{"CCSDS_OMM_VERS":"3.0","COMMENT":"GENERATED VIA SPACE-TRACK.ORG API","CREATION_DATE":"2026-05-16T17:43:08","ORIGINATOR":"18 SPCS","OBJECT_NAME":"THORAD AGENA D DEB","OBJECT_ID":"1969-082CD","CENTER_NAME":"EARTH","REF_FRAME":"TEME","TIME_SYSTEM":"UTC","MEAN_ELEMENT_THEORY":"SGP4","EPOCH":"2026-05-16T13:52:22.129824","MEAN_MOTION":"14.46013441","ECCENTRICITY":"0.00538296","INCLINATION":"70.0485","RA_OF_ASC_NODE":"148.0602","ARG_OF_PERICENTER":"101.6184","MEAN_ANOMALY":"259.0997","EPHEMERIS_TYPE":"0","CLASSIFICATION_TYPE":"U","NORAD_CAT_ID":"4214","ELEMENT_SET_NO":"999","REV_AT_EPOCH":"95566","BSTAR":"0.00014995522000","MEAN_MOTION_DOT":"0.00000483","MEAN_MOTION_DDOT":"0.0000000000000","SEMIMAJOR_AXIS":"7116.836","PERIOD":"99.584","APOAPSIS":"777.011","PERIAPSIS":"700.391","OBJECT_TYPE":"DEBRIS","RCS_SIZE":"SMALL","COUNTRY_CODE":"US","LAUNCH_DATE":"1969-09-30","SITE":"AFWTR","DECAY_DATE":null,"FILE":"5196581","GP_ID":"323458011","TLE_LINE0":"0 THORAD AGENA D DEB","TLE_LINE1":"1 04214U 69082CD  26136.57803391  .00000483  00000-0  14996-3 0  9997","TLE_LINE2":"2 04214  70.0485 148.0602 0053830 101.6184 259.0997 14.46013441955668"},{"CCSDS_OMM_VERS":"3.0","COMMENT":"GENERATED VIA SPACE-TRACK.ORG API","CREATION_DATE":"2026-05-16T17:43:08","ORIGINATOR":"18 SPCS","OBJECT_NAME":"THORAD AGENA D DEB","OBJECT_ID":"1969-082CF","CENTER_NAME":"EARTH","REF_FRAME":"TEME","TIME_SYSTEM":"UTC","MEAN_ELEMENT_THEORY":"SGP4","EPOCH":"2026-05-16T11:52:16.126176","MEAN_MOTION":"14.24736620","ECCENTRICITY":"0.00474308","INCLINATION":"70.1045","RA_OF_ASC_NODE":"111.0595","ARG_OF_PERICENTER":"179.3486","MEAN_ANOMALY":"180.7706","EPHEMERIS_TYPE":"0","CLASSIFICATION_TYPE":"U","NORAD_CAT_ID":"4216","ELEMENT_SET_NO":"999","REV_AT_EPOCH":"15684","BSTAR":"0.00009649049200","MEAN_MOTION_DOT":"0.00000171","MEAN_MOTION_DDOT":"0.0000000000000","SEMIMAJOR_AXIS":"7187.515","PERIOD":"101.071","APOAPSIS":"843.471","PERIAPSIS":"775.289","OBJECT_TYPE":"DEBRIS","RCS_SIZE":"LARGE","COUNTRY_CODE":"US","LAUNCH_DATE":"1969-09-30","SITE":"AFWTR","DECAY_DATE":null,"FILE":"5196581","GP_ID":"323457511","TLE_LINE0":"0 THORAD AGENA D DEB","TLE_LINE1":"1 04216U 69082CF  26136.49463109  .00000171  00000-0  96490-4 0  9993","TLE_LINE2":"2 04216  70.1045 111.0595 0047431 179.3486 180.7706 14.24736620156849"},{"CCSDS_OMM_VERS":"3.0","COMMENT":"GENERATED VIA SPACE-TRACK.ORG API","CREATION_DATE":"2026-05-16T17:43:08","ORIGINATOR":"18 SPCS","OBJECT_NAME":"THORAD AGENA D DEB","OBJECT_ID":"1969-082CG","CENTER_NAME":"EARTH","REF_FRAME":"TEME","TIME_SYSTEM":"UTC","MEAN_ELEMENT_THEORY":"SGP4","EPOCH":"2026-05-16T13:43:45.153696","MEAN_MOTION":"14.41958994","ECCENTRICITY":"0.00318285","INCLINATION":"70.0379","RA_OF_ASC_NODE":"222.7262","ARG_OF_PERICENTER":"55.1704","MEAN_ANOMALY":"305.2413","EPHEMERIS_TYPE":"0","CLASSIFICATION_TYPE":"U","NORAD_CAT_ID":"4217","ELEMENT_SET_NO":"999","REV_AT_EPOCH":"94324","BSTAR":"0.00018056002000","MEAN_MOTION_DOT":"0.00000537","MEAN_MOTION_DDOT":"0.0000000000000","SEMIMAJOR_AXIS":"7130.170","PERIOD":"99.864","APOAPSIS":"774.730","PERIAPSIS":"729.341","OBJECT_TYPE":"DEBRIS","RCS_SIZE":"MEDIUM","COUNTRY_CODE":"US","LAUNCH_DATE":"1969-09-30","SITE":"AFWTR","DECAY_DATE":null,"FILE":"5196581","GP_ID":"323458012","TLE_LINE0":"0 THORAD AGENA D DEB","TLE_LINE1":"1 04217U 69082CG  26136.57205039  .00000537  00000-0  18056-3 0  9996","TLE_LINE2":"2 04217  70.0379 222.7262 0031829  55.1704 305.2413 14.41958994943244"},{"CCSDS_OMM_VERS":"3.0","COMMENT":"GENERATED VIA SPACE-TRACK.ORG API","CREATION_DATE":"2026-05-16T18:56:32","ORIGINATOR":"18 SPCS","OBJECT_NAME":"THORAD AGENA D DEB","OBJECT_ID":"1969-082CH","CENTER_NAME":"EARTH","REF_FRAME":"TEME","TIME_SYSTEM":"UTC","MEAN_ELEMENT_THEORY":"SGP4","EPOCH":"2026-05-16T10:34:49.841760","MEAN_MOTION":"14.60630268","ECCENTRICITY":"0.00320500","INCLINATION":"70.0950","RA_OF_ASC_NODE":"302.0895","ARG_OF_PERICENTER":"336.2857","MEAN_ANOMALY":"23.6804","EPHEMERIS_TYPE":"0","CLASSIFICATION_TYPE":"U","NORAD_CAT_ID":"4218","ELEMENT_SET_NO":"999","REV_AT_EPOCH":"95420","BSTAR":"0.00030480000000","MEAN_MOTION_DOT":"0.00001427","MEAN_MOTION_DDOT":"0.0000000000000","SEMIMAJOR_AXIS":"7069.277","PERIOD":"98.588","APOAPSIS":"713.799","PERIAPSIS":"668.485","OBJECT_TYPE":"DEBRIS","RCS_SIZE":"SMALL","COUNTRY_CODE":"US","LAUNCH_DATE":"1969-09-30","SITE":"AFWTR","DECAY_DATE":null,"FILE":"5196584","GP_ID":"323490478","TLE_LINE0":"0 THORAD AGENA D DEB","TLE_LINE1":"1  4218U 69082CH  26136.44085465  .00001427  00000-0  30480-3 0  9996","TLE_LINE2":"2  4218  70.0950 302.0895 0032050 336.2857  23.6804 14.60630268954208"},{"CCSDS_OMM_VERS":"3.0","COMMENT":"GENERATED VIA SPACE-TRACK.ORG API","CREATION_DATE":"2026-05-16T17:43:08","ORIGINATOR":"18 SPCS","OBJECT_NAME":"AZUR (GRS A)","OBJECT_ID":"1969-097A","CENTER_NAME":"EARTH","REF_FRAME":"TEME","TIME_SYSTEM":"UTC","MEAN_ELEMENT_THEORY":"SGP4","EPOCH":"2026-05-16T14:33:30.273696","MEAN_MOTION":"15.32058967","ECCENTRICITY":"0.02252537","INCLINATION":"102.6583","RA_OF_ASC_NODE":"257.5640","ARG_OF_PERICENTER":"285.1154","MEAN_ANOMALY":"72.5250","EPHEMERIS_TYPE":"0","CLASSIFICATION_TYPE":"U","NORAD_CAT_ID":"4221","ELEMENT_SET_NO":"999","REV_AT_EPOCH":"72058","BSTAR":"0.00043444086000","MEAN_MOTION_DOT":"0.00030375","MEAN_MOTION_DDOT":"0.0000000000000","SEMIMAJOR_AXIS":"6847.807","PERIOD":"93.991","APOAPSIS":"623.922","PERIAPSIS":"315.423","OBJECT_TYPE":"PAYLOAD","RCS_SIZE":"MEDIUM","COUNTRY_CODE":"GER","LAUNCH_DATE":"1969-11-08","SITE":"AFWTR","DECAY_DATE":null,"FILE":"5196581","GP_ID":"323458013","TLE_LINE0":"0 AZUR (GRS A)","TLE_LINE1":"1 04221U 69097A   26136.60660039  .00030375  00000-0  43444-3 0  9998","TLE_LINE2":"2 04221 102.6583 257.5640 0225254 285.1154  72.5250 15.32058967720580"}]